IRIDIUM 171             
1 43929U 19002H   24342.75739528  .00000834  00000+0  29083-3 0  9999
2 43929  86.4000 226.3114 0001622  89.2619 270.8762 14.34216029309200
IRIDIUM 170             
1 43930U 19002J   24342.91746818  .00002331  00000+0  36564-3 0  9995
2 43930  86.6116 226.0339 0002402  79.8531 280.2957 14.72255335317411
IRIDIUM 167             
1 43931U 19002K   24342.96035193  .00000655  00000+0  22676-3 0  9994
2 43931  86.3992 225.9998 0001738  76.6142 283.5248 14.34221519309239
IRIDIUM 181             
1 56726U 23068S   24342.88362066  .00001016  00000+0  29400-3 0  9994
2 56726  86.6855 288.1348 0001914  91.5949 268.5472 14.43604832 82191
IRIDIUM 177             
1 56727U 23068T   24342.96134368  .00002672  00000+0  34818-3 0  9994
2 56727  86.1990 232.8306 0002169  78.0449 282.1015 14.80220628 84088
IRIDIUM 174             
1 56728U 23068U   24342.55031926  .00003353  00000+0  43778-3 0  9998
2 56728  86.1989 233.1431 0002075  92.4362 267.7097 14.80229902 84027
IRIDIUM 178             
1 56729U 23068V   24342.81532037  .00000797  00000+0  10148-3 0  9991
2 56729  86.5775 258.6976 0001694  95.1909 264.9505 14.80228403 84066
IRIDIUM 179             
1 56730U 23068W   24342.87750595  .00003681  00000+0  48100-3 0  9994
2 56730  86.6781 264.9936 0002283  88.0016 272.1467 14.80228462 84071
